{"type": "FeatureCollection", "features": [ {"type": "Feature", "properties": {"norad_id": 36011, "name": "IRIDIUM 33 DEB", "group": "iridium-33-debris", "lat": -22.765974355289472, "lon": -138.5402053794116, "alt_km": 752.4319476998389, "timestamp": "2025-12-02T06:27:53.397306+00:00", "meta": {"OBJECT_NAME": "IRIDIUM 33 DEB", "OBJECT_ID": "1997-051US", "EPOCH": "2025-11-27T22:48:02.153088", "MEAN_MOTION": 14.41259363, "ECCENTRICITY": 0.0016688, "INCLINATION": 86.3418, "RA_OF_ASC_NODE": 41.7752, "ARG_OF_PERICENTER": 268.8947, "MEAN_ANOMALY": 217.0188, "EPHEMERIS_TYPE": 0, "CLASSIFICATION_TYPE": "U", "NORAD_CAT_ID": 36011, "ELEMENT_SET_NO": 999, "REV_AT_EPOCH": 64327, "BSTAR": 0.00058853, "MEAN_MOTION_DOT": 1.923e-05, "MEAN_MOTION_DDOT": 0}, "tle": {"line1": "1 36011U 97051US  25331.95002492  .00001923  00000+0  58853-3 0  9994", "line2": "2 36011  86.3418  41.7752 0016688 268.8947 217.0188 14.41259363643279"}}, "geometry": {"type": "Point", "coordinates": [-138.5402053794116, -22.765974355289472]}}, {"type": "Feature", "properties": {"norad_id": 36012, "name": "IRIDIUM 33 DEB", "group": "iridium-33-debris", "lat": -75.4925808449884, "lon": 145.66428754957687, "alt_km": 720.3097122457139, "timestamp": "2025-12-02T06:27:53.397316+00:00", "meta": {"OBJECT_NAME": "IRIDIUM 33 DEB", "OBJECT_ID": "1997-051UT", "EPOCH": "2025-11-30T09:13:21.766944", "MEAN_MOTION": 14.18317732, "ECCENTRICITY": 0.02146731, "INCLINATION": 86.4437, "RA_OF_ASC_NODE": 312.5163, "ARG_OF_PERICENTER": 303.0455, "MEAN_ANOMALY": 55.0272, "EPHEMERIS_TYPE": 0, "CLASSIFICATION_TYPE": "U", "NORAD_CAT_ID": 36012, "ELEMENT_SET_NO": 999, "REV_AT_EPOCH": 65309, "BSTAR": 0.0080758053, "MEAN_MOTION_DOT": 0.00020957, "MEAN_MOTION_DDOT": 0}, "tle": {"line1": "1 36012U 97051UT  25334.38427971  .00020957  00000+0  80758-2 0  9994", "line2": "2 36012  86.4437 312.5163 0214673 303.0455  55.0272 14.18317732653091"}}, "geometry": {"type": "Point", "coordinates": [145.66428754957687, -75.4925808449884]}}, {"type": "Feature", "properties": {"norad_id": 36028, "name": "IRIDIUM 33 DEB", "group": "iridium-33-debris", "lat": -7.09329748763343, "lon": -48.83884379522769, "alt_km": 588.2138385272783, "timestamp": "2025-12-02T06:27:53.397326+00:00", "meta": {"OBJECT_NAME": "IRIDIUM 33 DEB", "OBJECT_ID": "1997-051VK", "EPOCH": "2025-12-01T16:02:00.587040", "MEAN_MOTION": 14.94442406, "ECCENTRICITY": 0.0022112, "INCLINATION": 86.3212, "RA_OF_ASC_NODE": 311.9023, "ARG_OF_PERICENTER": 86.0003, "MEAN_ANOMALY": 274.3753, "EPHEMERIS_TYPE": 0, "CLASSIFICATION_TYPE": "U", "NORAD_CAT_ID": 36028, "ELEMENT_SET_NO": 999, "REV_AT_EPOCH": 86959, "BSTAR": 0.0022069, "MEAN_MOTION_DOT": 0.00023977, "MEAN_MOTION_DDOT": 0}, "tle": {"line1": "1 36028U 97051VK  25335.66806235  .00023977  00000+0  22069-2 0  9993", "line2": "2 36028  86.3212 311.9023 0022112  86.0003 274.3753 14.94442406869593"}}, "geometry": {"type": "Point", "coordinates": [-48.83884379522769, -7.09329748763343]}}, {"type": "Feature", "properties": {"norad_id": 36080, "name": "IRIDIUM 33 DEB", "group": "iridium-33-debris", "lat": -50.35075402947568, "lon": -162.9983573836864, "alt_km": 734.728149078227, "timestamp": "2025-12-02T06:27:53.397337+00:00", "meta": {"OBJECT_NAME": "IRIDIUM 33 DEB", "OBJECT_ID": "1997-051VM", "EPOCH": "2025-11-30T20:11:56.294592", "MEAN_MOTION": 14.46521856, "ECCENTRICITY": 0.0017024, "INCLINATION": 86.3209, "RA_OF_ASC_NODE": 13.1702, "ARG_OF_PERICENTER": 195.0829, "MEAN_ANOMALY": 164.9869, "EPHEMERIS_TYPE": 0, "CLASSIFICATION_TYPE": "U", "NORAD_CAT_ID": 36080, "ELEMENT_SET_NO": 999, "REV_AT_EPOCH": 47242, "BSTAR": 0.00064307245, "MEAN_MOTION_DOT": 2.338e-05, "MEAN_MOTION_DDOT": 0}, "tle": {"line1": "1 36080U 97051VM  25334.84162378  .00002338  00000+0  64307-3 0  9993", "line2": "2 36080  86.3209  13.1702 0017024 195.0829 164.9869 14.46521856472423"}}, "geometry": {"type": "Point", "coordinates": [-162.9983573836864, -50.35075402947568]}}, {"type": "Feature", "properties": {"norad_id": 36083, "name": "IRIDIUM 33 DEB", "group": "iridium-33-debris", "lat": 86.34175912628332, "lon": 129.910022870507, "alt_km": 757.86691425772, "timestamp": "2025-12-02T06:27:53.397347+00:00", "meta": {"OBJECT_NAME": "IRIDIUM 33 DEB", "OBJECT_ID": "1997-051VQ", "EPOCH": "2025-11-30T10:46:50.880000", "MEAN_MOTION": 14.43133955, "ECCENTRICITY": 0.00245074, "INCLINATION": 86.345, "RA_OF_ASC_NODE": 39.4431, "ARG_OF_PERICENTER": 266.1752, "MEAN_ANOMALY": 93.6646, "EPHEMERIS_TYPE": 0, "CLASSIFICATION_TYPE": "U", "NORAD_CAT_ID": 36083, "ELEMENT_SET_NO": 999, "REV_AT_EPOCH": 85272, "BSTAR": 0.00060468289, "MEAN_MOTION_DOT": 2.056e-05, "MEAN_MOTION_DDOT": 0}, "tle": {"line1": "1 36083U 97051VQ  25334.44920000  .00002056  00000+0  60468-3 0  9997", "line2": "2 36083  86.3450  39.4431 0024507 266.1752  93.6646 14.43133955852725"}}, "geometry": {"type": "Point", "coordinates": [129.910022870507, 86.34175912628332]}}, {"type": "Feature", "properties": {"norad_id": 36390, "name": "IRIDIUM 33 DEB", "group": "iridium-33-debris", "lat": -27.77642667083592, "lon": 126.15006757942264, "alt_km": 636.3997496849552, "timestamp": "2025-12-02T06:27:53.397357+00:00", "meta": {"OBJECT_NAME": "IRIDIUM 33 DEB", "OBJECT_ID": "1997-051VU", "EPOCH": "2025-11-30T04:37:26.668128", "MEAN_MOTION": 14.73329322, "ECCENTRICITY": 0.00285998, "INCLINATION": 86.289, "RA_OF_ASC_NODE": 305.1428, "ARG_OF_PERICENTER": 206.0853, "MEAN_ANOMALY": 153.8925, "EPHEMERIS_TYPE": 0, "CLASSIFICATION_TYPE": "U", "NORAD_CAT_ID": 36390, "ELEMENT_SET_NO": 999, "REV_AT_EPOCH": 66077, "BSTAR": 0.001268982, "MEAN_MOTION_DOT": 8.29e-05, "MEAN_MOTION_DDOT": 0}, "tle": {"line1": "1 36390U 97051VU  25334.19266977  .00008290  00000+0  12690-2 0  9995", "line2": "2 36390  86.2890 305.1428 0028599 206.0853 153.8925 14.73329322660771"}}, "geometry": {"type": "Point", "coordinates": [126.15006757942264, -27.77642667083592]}}, {"type": "Feature", "properties": {"norad_id": 36483, "name": "IRIDIUM 33 DEB", "group": "iridium-33-debris", "lat": 24.17061410000821, "lon": -124.65677439083052, "alt_km": 732.4378244518075, "timestamp": "2025-12-02T06:27:53.397367+00:00", "meta": {"OBJECT_NAME": "IRIDIUM 33 DEB", "OBJECT_ID": "1997-051VZ", "EPOCH": "2025-11-22T13:11:17.919744", "MEAN_MOTION": 14.45699989, "ECCENTRICITY": 0.0009342, "INCLINATION": 86.3802, "RA_OF_ASC_NODE": 61.1291, "ARG_OF_PERICENTER": 185.7965, "MEAN_ANOMALY": 174.3131, "EPHEMERIS_TYPE": 0, "CLASSIFICATION_TYPE": "U", "NORAD_CAT_ID": 36483, "ELEMENT_SET_NO": 999, "REV_AT_EPOCH": 64854, "BSTAR": 0.0005707, "MEAN_MOTION_DOT": 2.04e-05, "MEAN_MOTION_DDOT": 0}, "tle": {"line1": "1 36483U 97051VZ  25326.54951296  .00002040  00000+0  57070-3 0  9992", "line2": "2 36483  86.3802  61.1291 0009342 185.7965 174.3131 14.45699989648543"}}, "geometry": {"type": "Point", "coordinates": [-124.65677439083052, 24.17061410000821]}}, {"type": "Feature", "properties": {"norad_id": 36490, "name": "IRIDIUM 33 DEB", "group": "iridium-33-debris", "lat": -5.567941875549678, "lon": 14.829859595487708, "alt_km": 647.6765303569082, "timestamp": "2025-12-02T06:27:53.397377+00:00", "meta": {"OBJECT_NAME": "IRIDIUM 33 DEB", "OBJECT_ID": "1997-051WG", "EPOCH": "2025-11-30T20:19:01.149312", "MEAN_MOTION": 14.75798631, "ECCENTRICITY": 0.00055619, "INCLINATION": 86.3661, "RA_OF_ASC_NODE": 15.8259, "ARG_OF_PERICENTER": 109.7854, "MEAN_ANOMALY": 250.3965, "EPHEMERIS_TYPE": 0, "CLASSIFICATION_TYPE": "U", "NORAD_CAT_ID": 36490, "ELEMENT_SET_NO": 999, "REV_AT_EPOCH": 86309, "BSTAR": 0.0016181183, "MEAN_MOTION_DOT": 0.00011119, "MEAN_MOTION_DDOT": 0}, "tle": {"line1": "1 36490U 97051WG  25334.84654108  .00011119  00000+0  16181-2 0  9998", "line2": "2 36490  86.3661  15.8259 0005561 109.7854 250.3965 14.75798631863092"}}, "geometry": {"type": "Point", "coordinates": [14.829859595487708, -5.567941875549678]}}, {"type": "Feature", "properties": {"norad_id": 36493, "name": "IRIDIUM 33 DEB", "group": "iridium-33-debris", "lat": -33.00671388498911, "lon": 13.961000751457915, "alt_km": 680.6382536191677, "timestamp": "2025-12-02T06:27:53.397387+00:00", "meta": {"OBJECT_NAME": "IRIDIUM 33 DEB", "OBJECT_ID": "1997-051WK", "EPOCH": "2025-11-29T09:45:52.591680", "MEAN_MOTION": 14.64969461, "ECCENTRICITY": 0.00117036, "INCLINATION": 86.359, "RA_OF_ASC_NODE": 17.6018, "ARG_OF_PERICENTER": 48.0633, "MEAN_ANOMALY": 312.1576, "EPHEMERIS_TYPE": 0, "CLASSIFICATION_TYPE": "U", "NORAD_CAT_ID": 36493, "ELEMENT_SET_NO": 999, "REV_AT_EPOCH": 74323, "BSTAR": 0.0011558423, "MEAN_MOTION_DOT": 6.216e-05, "MEAN_MOTION_DDOT": 0}, "tle": {"line1": "1 36493U 97051WK  25333.40685870  .00006216  00000+0  11558-2 0  9997", "line2": "2 36493  86.3590  17.6018 0011703  48.0633 312.1576 14.64969461743231"}}, "geometry": {"type": "Point", "coordinates": [13.961000751457915, -33.00671388498911]}}, {"type": "Feature", "properties": {"norad_id": 37548, "name": "IRIDIUM 33 DEB", "group": "iridium-33-debris", "lat": -42.46342444250907, "lon": 44.576648022467694, "alt_km": 729.3465050854693, "timestamp": "2025-12-02T06:27:53.397397+00:00", "meta": {"OBJECT_NAME": "IRIDIUM 33 DEB", "OBJECT_ID": "1997-051XH", "EPOCH": "2025-11-29T22:23:36.250944", "MEAN_MOTION": 14.5113469, "ECCENTRICITY": 0.00243457, "INCLINATION": 86.3524, "RA_OF_ASC_NODE": 48.9393, "ARG_OF_PERICENTER": 232.6782, "MEAN_ANOMALY": 127.2204, "EPHEMERIS_TYPE": 0, "CLASSIFICATION_TYPE": "U", "NORAD_CAT_ID": 37548, "ELEMENT_SET_NO": 999, "REV_AT_EPOCH": 65346, "BSTAR": 0.0012745087, "MEAN_MOTION_DOT": 5.093e-05, "MEAN_MOTION_DDOT": 0}, "tle": {"line1": "1 37548U 97051XH  25333.93305846  .00005093  00000+0  12745-2 0  9990", "line2": "2 37548  86.3524  48.9393 0024345 232.6782 127.2204 14.51134690653467"}}, "geometry": {"type": "Point", "coordinates": [44.576648022467694, -42.46342444250907]}}]}